NORAD_CAT_ID,OBJECT_NAME,OBJECT_TYPE,EPOCH,MEAN_MOTION,ECCENTRICITY,INCLINATION,RA_OF_ASC_NODE,ARG_OF_PERICENTER,MEAN_ANOMALY,BSTAR,MEAN_MOTION_DOT,MEAN_MOTION_DDOT,TLE_LINE0,TLE_LINE1,TLE_LINE2,SEMIMAJOR_AXIS,PERIOD,APOGEE,PERIGEE,DECAYED
52836.0,STARLINK-4043,PAYLOAD,2023-11-28 20:16:24,15.08843784,0.000158,53.2152,168.4158,78.0787,282.0382,0.00072182,0.0001122,0.0,0 STARLINK-4043,1 52836U 22062G   23332.84473205  .00011220  00000-0  72182-3 0  9991,2 52836  53.2152 168.4158 0001580  78.0787 282.0382 15.08843784 80201,6917.869,95.437,540.827,538.641,0.0
52836.0,STARLINK-4043,PAYLOAD,2023-11-29 12:10:16,15.08845153,0.000146,53.2143,165.4408,94.1539,265.962,0.00044318,6.773e-05,0.0,0 STARLINK-4043,1 52836U 22062G   23333.50713116  .00006773  00000-0  44318-3 0  9990,2 52836  53.2143 165.4408 0001460  94.1539 265.9620 15.08845153 80305,6917.865,95.437,540.74,538.72,0.0
52836.0,STARLINK-4043,PAYLOAD,2023-11-30 12:01:02,15.08843911,0.0001514,53.2137,160.9842,86.1926,273.9239,0.00016291,2.306e-05,0.0,0 STARLINK-4043,1 52836U 22062G   23334.50072873  .00002306  00000-0  16291-3 0  9996,2 52836  53.2137 160.9842 0001514  86.1926 273.9239 15.08843911 80452,6917.868,95.437,540.781,538.686,0.0
52836.0,STARLINK-4043,PAYLOAD,2023-12-01 19:48:45,15.08851582,0.0001451,53.2134,155.0344,92.7895,267.3263,0.00027609,4.11e-05,0.0,0 STARLINK-4043,1 52836U 22062G   23335.82552641  .00004110  00000-0  27609-3 0  9998,2 52836  53.2134 155.0344 0001451  92.7895 267.3263 15.08851582 80658,6917.845,95.437,540.714,538.706,0.0
52836.0,STARLINK-4043,PAYLOAD,2023-12-02 11:42:36,15.0885508,0.0001432,53.2144,152.0628,91.5101,268.6055,0.00040826,6.218e-05,0.0,0 STARLINK-4043,1 52836U 22062G   23336.48792402  .00006218  00000-0  40826-3 0  9999,2 52836  53.2144 152.0628 0001432  91.5101 268.6055 15.08855080 80758,6917.834,95.437,540.69,538.709,0.0
52836.0,STARLINK-4043,PAYLOAD,2023-12-02 18:04:07,15.0892828,0.0001252,53.2149,150.8746,52.7074,307.4032,0.0021314,0.00033879,0.0,0 STARLINK-4043,1 52836U 22062G   23336.75286181  .00033879  00000-0  21314-2 0  9994,2 52836  53.2149 150.8746 0001252  52.7074 307.4032 15.08928280 80792,6917.611,95.432,540.342,538.609,0.0
52836.0,STARLINK-4043,PAYLOAD,2023-12-03 14:44:10,15.08834754,0.0001282,53.2138,147.0043,70.5764,289.5366,1.7378e-05,-1.1e-07,0.0,0 STARLINK-4043,1 52836U 22062G   23337.61401174 -.00000011  00000-0  17378-4 0  9991,2 52836  53.2138 147.0043 0001282  70.5764 289.5366 15.08834754 80922,6917.896,95.438,540.648,538.875,0.0
52836.0,STARLINK-4043,PAYLOAD,2023-12-03 17:54:56,15.08836022,0.0001221,53.2148,146.4131,98.0163,262.0968,-3.4416e-05,-8.35e-06,0.0,0 STARLINK-4043,1 52836U 22062G   23337.74649212 -.00000835  00000-0 -34416-4 0  9999,2 52836  53.2148 146.4131 0001221  98.0163 262.0968 15.08836022 80941,6917.893,95.438,540.602,538.913,0.0
52836.0,STARLINK-4043,PAYLOAD,2023-12-05 11:14:58,15.08841695,0.0001244,53.2155,138.684,90.6264,269.4871,0.00021737,3.173e-05,0.0,0 STARLINK-4043,1 52836U 22062G   23339.46873640  .00003173  00000-0  21737-3 0  9991,2 52836  53.2155 138.6840 0001244  90.6264 269.4871 15.08841695 81200,6917.875,95.437,540.601,538.88,0.0
52836.0,STARLINK-4043,PAYLOAD,2023-12-05 20:47:17,15.08849248,0.00013,53.2152,136.8939,86.9315,273.1825,0.0003104,4.657e-05,0.0,0 STARLINK-4043,1 52836U 22062G   23339.86617282  .00004657  00000-0  31040-3 0  9999,2 52836  53.2152 136.8939 0001300  86.9315 273.1825 15.08849248 81263,6917.852,95.437,540.616,538.818,0.0
52836.0,STARLINK-4043,PAYLOAD,2023-12-06 11:05:45,15.08843447,0.0002308,53.215,134.22,105.6311,254.4936,6.66e-05,7.72e-06,0.0,0 STARLINK-4043,1 52836U 22062G   23340.46233309  .00000772  00000-0  66600-4 0  9996,2 52836  53.2150 134.2200 0002308 105.6311 254.4936 15.08843447 81358,6917.87,95.437,541.331,538.138,0.0
52836.0,STARLINK-4043,PAYLOAD,2023-12-07 10:56:32,15.08837721,0.0002061,53.2127,129.7572,108.3244,251.7973,-1.8616e-05,-5.84e-06,0.0,0 STARLINK-4043,1 52836U 22062G   23341.45593453 -.00000584  00000-0 -18616-4 0  9992,2 52836  53.2127 129.7572 0002061 108.3244 251.7973 15.08837721 81500,6917.887,95.438,541.178,538.327,0.0
52836.0,STARLINK-4043,PAYLOAD,2023-12-07 20:28:52,15.08834924,0.000196,53.2143,127.9738,105.9989,254.1219,1.7836e-06,-2.6e-06,0.0,0 STARLINK-4043,1 52836U 22062G   23341.85338142 -.00000260  00000-0  17836-5 0  9992,2 52836  53.2143 127.9738 0001960 105.9989 254.1219 15.08834924 81566,6917.896,95.438,541.117,538.405,0.0
52836.0,STARLINK-4043,PAYLOAD,2023-12-08 12:22:43,15.08834328,0.0001416,53.2156,125.0008,100.4817,259.6335,5.4789e-05,5.84e-06,0.0,0 STARLINK-4043,1 52836U 22062G   23342.51578114  .00000584  00000-0  54789-4 0  9996,2 52836  53.2156 125.0008 0001416 100.4817 259.6335 15.08834328 81663,6917.898,95.438,540.742,538.783,0.0
52836.0,STARLINK-4043,PAYLOAD,2023-12-09 12:13:30,15.08837203,0.0001484,53.216,120.5392,102.4424,257.6735,8.8319e-05,1.118e-05,0.0,0 STARLINK-4043,1 52836U 22062G   23343.50938054  .00001118  00000-0  88319-4 0  9999,2 52836  53.2160 120.5392 0001484 102.4424 257.6735 15.08837203 81819,6917.889,95.438,540.781,538.727,0.0
52836.0,STARLINK-4043,PAYLOAD,2023-12-09 18:35:02,15.08840015,0.0001489,53.2159,119.3498,101.8614,258.2546,0.00010517,1.386e-05,0.0,0 STARLINK-4043,1 52836U 22062G   23343.77433877  .00001386  00000-0  10517-3 0  9992,2 52836  53.2159 119.3498 0001489 101.8614 258.2546 15.08840015 81855,6917.88,95.438,540.775,538.715,0.0
52836.0,STARLINK-4043,PAYLOAD,2023-12-10 13:39:40,15.08841947,0.0001519,53.216,115.7808,111.6066,248.5088,9.7754e-05,1.268e-05,0.0,0 STARLINK-4043,1 52836U 22062G   23344.56921742  .00001268  00000-0  97754-4 0  9991,2 52836  53.2160 115.7808 0001519 111.6066 248.5088 15.08841947 81977,6917.874,95.437,540.79,538.689,0.0
52836.0,STARLINK-4043,PAYLOAD,2023-12-10 15:15:03,15.08841854,0.000137,53.2162,115.4842,108.7978,251.3163,9.4242e-05,1.212e-05,0.0,0 STARLINK-4043,1 52836U 22062G   23344.63545758  .00001212  00000-0  94242-4 0  9996,2 52836  53.2162 115.4842 0001370 108.7978 251.3163 15.08841854 81982,6917.875,95.437,540.687,538.792,0.0
52836.0,STARLINK-4043,PAYLOAD,2023-12-11 11:55:04,15.08842439,0.0001372,53.2167,111.6176,104.0128,256.1017,4.5351e-05,4.34e-06,0.0,0 STARLINK-4043,1 52836U 22062G   23345.49657813  .00000434  00000-0  45351-4 0  9999,2 52836  53.2167 111.6176 0001372 104.0128 256.1017 15.08842439 82110,6917.873,95.437,540.687,538.789,0.0
52836.0,STARLINK-4043,PAYLOAD,2023-12-11 13:30:27,15.08842923,0.0001371,53.2167,111.3204,101.7834,258.3312,4.7722e-05,4.72e-06,0.0,0 STARLINK-4043,1 52836U 22062G   23345.56281792  .00000472  00000-0  47722-4 0  9992,2 52836  53.2167 111.3204 0001371 101.7834 258.3312 15.08842923 82127,6917.871,95.437,540.685,538.788,0.0
52836.0,STARLINK-4043,PAYLOAD,2023-12-11 15:05:50,15.08843284,0.000134,53.2166,111.0238,97.7443,262.3701,4.6993e-05,4.6e-06,0.0,0 STARLINK-4043,1 52836U 22062G   23345.62905774  .00000460  00000-0  46993-4 0  9998,2 52836  53.2166 111.0238 0001340  97.7443 262.3701 15.08843284 82135,6917.87,95.437,540.662,538.808,0.0
52836.0,STARLINK-4043,PAYLOAD,2023-12-12 13:21:14,15.08839695,0.0001443,53.2176,106.8652,103.5732,256.5421,2.8628e-05,1.68e-06,0.0,0 STARLINK-4043,1 52836U 22062G   23346.55642052  .00000168  00000-0  28628-4 0  9998,2 52836  53.2176 106.8652 0001443 103.5732 256.5421 15.08839695 82279,6917.881,95.438,540.745,538.748,0.0
52836.0,STARLINK-4043,PAYLOAD,2023-12-12 14:56:37,15.08840529,0.0001449,53.2176,106.5669,102.6043,257.5111,3.5233e-05,2.73e-06,0.0,0 STARLINK-4043,1 52836U 22062G   23346.62265968  .00000273  00000-0  35233-4 0  9990,2 52836  53.2176 106.5669 0001449 102.6043 257.5111 15.08840529 82281,6917.879,95.438,540.746,538.741,0.0
52836.0,STARLINK-4043,PAYLOAD,2023-12-13 14:47:24,15.08844685,0.0001482,53.2179,102.107,103.1774,256.9384,0.00010379,1.364e-05,0.0,0 STARLINK-4043,1 52836U 22062G   23347.61625450  .00001364  00000-0  10379-3 0  9991,2 52836  53.2179 102.1070 0001482 103.1774 256.9384 15.08844685 82435,6917.866,95.437,540.756,538.706,0.0
52836.0,STARLINK-4043,PAYLOAD,2023-12-14 11:27:25,15.08838743,0.0001506,53.2178,98.2406,112.3334,247.7818,3.2717e-05,2.33e-06,0.0,0 STARLINK-4043,1 52836U 22062G   23348.47738085  .00000233  00000-0  32717-4 0  9990,2 52836  53.2178  98.2406 0001506 112.3334 247.7818 15.08838743 82565,6917.884,95.438,540.791,538.707,0.0
52836.0,STARLINK-4043,PAYLOAD,2023-12-14 13:02:48,15.08839799,0.0001447,53.2182,97.9464,106.3478,253.7674,5.0094e-05,5.09e-06,0.0,0 STARLINK-4043,1 52836U 22062G   23348.54362051  .00000509  00000-0  50094-4 0  9998,2 52836  53.2182  97.9464 0001447 106.3478 253.7674 15.08839799 82576,6917.881,95.438,540.747,538.745,0.0
52836.0,STARLINK-4043,PAYLOAD,2023-12-14 14:38:11,15.08841862,0.0001485,53.2184,97.6481,109.0105,251.1048,6.4861e-05,7.44e-06,0.0,0 STARLINK-4043,1 52836U 22062G   23348.60985869  .00000744  00000-0  64861-4 0  9991,2 52836  53.2184  97.6481 0001485 109.0105 251.1048 15.08841862 82585,6917.875,95.437,540.767,538.712,0.0
52836.0,STARLINK-4043,PAYLOAD,2023-12-15 11:18:13,15.08837325,0.0001436,53.218,93.7831,108.2712,251.8437,-6.0957e-05,-1.258e-05,0.0,0 STARLINK-4043,1 52836U 22062G   23349.47098726 -.00001258  00000-0 -60957-4 0  9999,2 52836  53.2180  93.7831 0001436 108.2712 251.8437 15.08837325 82711,6917.889,95.438,540.747,538.76,0.0
52836.0,STARLINK-4043,PAYLOAD,2023-12-15 14:28:59,15.08837415,0.0001344,53.2176,93.186,94.5435,265.571,-6.0506e-05,-1.251e-05,0.0,0 STARLINK-4043,1 52836U 22062G   23349.60346791 -.00001251  00000-0 -60506-4 0  9995,2 52836  53.2176  93.1860 0001344  94.5435 265.5710 15.08837415 82737,6917.888,95.438,540.683,538.824,0.0
52836.0,STARLINK-4043,PAYLOAD,2023-12-16 14:19:45,15.08852412,0.0001382,53.2179,88.7232,76.346,283.7686,0.00011304,1.512e-05,0.0,0 STARLINK-4043,1 52836U 22062G   23350.59705741  .00001512  00000-0  11304-3 0  9998,2 52836  53.2179  88.7232 0001382  76.3460 283.7686 15.08852412 82885,6917.842,95.437,540.663,538.751,0.0
